FLOCK 4G-1              
1 62666U 25009BK  26068.75951132  .00013534  00000+0  50654-3 0  9995
2 62666  97.4059 151.3158 0003180 323.1401  36.9619 15.27421081 63725
STARLINK-36042          
1 66813U 25278Y   26068.43374346  .00018218  00000+0  67003-3 0  9992
2 66813  43.0002 115.4822 0002251 273.0427  87.0167 15.27573102 15179
